[{"OBJECT_NAME":"BEIDOU-3 M19 (C41)","OBJECT_ID":"2019-090A","EPOCH":"2026-04-25T07:24:38.655936","MEAN_MOTION":1.86231193,"ECCENTRICITY":0.00198272,"INCLINATION":56.5154,"RA_OF_ASC_NODE":64.5372,"ARG_OF_PERICENTER":295.9075,"MEAN_ANOMALY":65.7258,"EPHEMERIS_TYPE":0,"CLASSIFICATION_TYPE":"U","NORAD_CAT_ID":44864,"ELEMENT_SET_NO":999,"REV_AT_EPOCH":4325,"BSTAR":0,"MEAN_MOTION_DOT":-2.8e-7,"MEAN_MOTION_DDOT":0},{"OBJECT_NAME":"BEIDOU-3 M20 (C42)","OBJECT_ID":"2019-090B","EPOCH":"2026-04-24T08:44:05.224704","MEAN_MOTION":1.86231081,"ECCENTRICITY":0.00175044,"INCLINATION":56.5162,"RA_OF_ASC_NODE":64.6031,"ARG_OF_PERICENTER":308.2106,"MEAN_ANOMALY":229.5642,"EPHEMERIS_TYPE":0,"CLASSIFICATION_TYPE":"U","NORAD_CAT_ID":44865,"ELEMENT_SET_NO":999,"REV_AT_EPOCH":4321,"BSTAR":0,"MEAN_MOTION_DOT":-2.2e-7,"MEAN_MOTION_DDOT":0},{"OBJECT_NAME":"BEIDOU-3 G2 (C60)","OBJECT_ID":"2020-017A","EPOCH":"2026-04-26T12:14:10.168224","MEAN_MOTION":1.00271418,"ECCENTRICITY":0.0002527,"INCLINATION":2.7623,"RA_OF_ASC_NODE":46.5278,"ARG_OF_PERICENTER":347.1589,"MEAN_ANOMALY":84.4073,"EPHEMERIS_TYPE":0,"CLASSIFICATION_TYPE":"U","NORAD_CAT_ID":45344,"ELEMENT_SET_NO":999,"REV_AT_EPOCH":2274,"BSTAR":0,"MEAN_MOTION_DOT":-1.51e-6,"MEAN_MOTION_DDOT":0},{"OBJECT_NAME":"COSMOS 2545 (760)","OBJECT_ID":"2020-018A","EPOCH":"2026-04-26T03:16:45.753888","MEAN_MOTION":2.13102374,"ECCENTRICITY":0.0007175,"INCLINATION":64.3864,"RA_OF_ASC_NODE":314.2486,"ARG_OF_PERICENTER":238.9664,"MEAN_ANOMALY":120.9888,"EPHEMERIS_TYPE":0,"CLASSIFICATION_TYPE":"U","NORAD_CAT_ID":45358,"ELEMENT_SET_NO":999,"REV_AT_EPOCH":4755,"BSTAR":0,"MEAN_MOTION_DOT":-2.7e-7,"MEAN_MOTION_DDOT":0},{"OBJECT_NAME":"BEIDOU-3 G3 (C61)","OBJECT_ID":"2020-040A","EPOCH":"2026-04-26T12:27:08.906976","MEAN_MOTION":1.00270512,"ECCENTRICITY":0.0003731,"INCLINATION":2.3224,"RA_OF_ASC_NODE":67.2935,"ARG_OF_PERICENTER":329.1363,"MEAN_ANOMALY":115.419,"EPHEMERIS_TYPE":0,"CLASSIFICATION_TYPE":"U","NORAD_CAT_ID":45807,"ELEMENT_SET_NO":999,"REV_AT_EPOCH":2155,"BSTAR":0,"MEAN_MOTION_DOT":-3.64e-6,"MEAN_MOTION_DDOT":0},{"OBJECT_NAME":"GPS BIII-3  (PRN 23)","OBJECT_ID":"2020-041A","EPOCH":"2026-04-25T02:18:27.430848","MEAN_MOTION":2.00559675,"ECCENTRICITY":0.00621638,"INCLINATION":56.6375,"RA_OF_ASC_NODE":31.0034,"ARG_OF_PERICENTER":205.0676,"MEAN_ANOMALY":307.4587,"EPHEMERIS_TYPE":0,"CLASSIFICATION_TYPE":"U","NORAD_CAT_ID":45854,"ELEMENT_SET_NO":999,"REV_AT_EPOCH":4297,"BSTAR":0,"MEAN_MOTION_DOT":-9.5e-7,"MEAN_MOTION_DDOT":0},{"OBJECT_NAME":"GALAXY 30 (WAAS/PRN 135)","OBJECT_ID":"2020-056C","EPOCH":"2026-04-26T10:57:10.298016","MEAN_MOTION":1.00271118,"ECCENTRICITY":0.0002469,"INCLINATION":0.0135,"RA_OF_ASC_NODE":234.6557,"ARG_OF_PERICENTER":173.0737,"MEAN_ANOMALY":206.018,"EPHEMERIS_TYPE":0,"CLASSIFICATION_TYPE":"U","NORAD_CAT_ID":46114,"ELEMENT_SET_NO":999,"REV_AT_EPOCH":2077,"BSTAR":0,"MEAN_MOTION_DOT":0,"MEAN_MOTION_DDOT":0},{"OBJECT_NAME":"COSMOS 2547 (705K)","OBJECT_ID":"2020-075A","EPOCH":"2026-04-25T20:33:14.486688","MEAN_MOTION":2.13100244,"ECCENTRICITY":0.00083527,"INCLINATION":64.5969,"RA_OF_ASC_NODE":194.2211,"ARG_OF_PERICENTER":236.9134,"MEAN_ANOMALY":123.0532,"EPHEMERIS_TYPE":0,"CLASSIFICATION_TYPE":"U","NORAD_CAT_ID":46805,"ELEMENT_SET_NO":999,"REV_AT_EPOCH":4279,"BSTAR":0,"MEAN_MOTION_DOT":-1.5e-7,"MEAN_MOTION_DDOT":0},{"OBJECT_NAME":"GPS BIII-4  (PRN 14)","OBJECT_ID":"2020-078A","EPOCH":"2026-04-22T22:15:39.157056","MEAN_MOTION":2.00564823,"ECCENTRICITY":0.0070939,"INCLINATION":53.9891,"RA_OF_ASC_NODE":213.0193,"ARG_OF_PERICENTER":205.6597,"MEAN_ANOMALY":155.6852,"EPHEMERIS_TYPE":0,"CLASSIFICATION_TYPE":"U","NORAD_CAT_ID":46826,"ELEMENT_SET_NO":999,"REV_AT_EPOCH":4040,"BSTAR":0,"MEAN_MOTION_DOT":-1.7e-7,"MEAN_MOTION_DDOT":0},{"OBJECT_NAME":"GPS BIII-5  (PRN 11)","OBJECT_ID":"2021-054A","EPOCH":"2026-04-26T08:52:39.150048","MEAN_MOTION":2.0057231,"ECCENTRICITY":0.0024043,"INCLINATION":55.1971,"RA_OF_ASC_NODE":334.5423,"ARG_OF_PERICENTER":229.923,"MEAN_ANOMALY":282.5639,"EPHEMERIS_TYPE":0,"CLASSIFICATION_TYPE":"U","NORAD_CAT_ID":48859,"ELEMENT_SET_NO":999,"REV_AT_EPOCH":3571,"BSTAR":0,"MEAN_MOTION_DOT":-8.3e-7,"MEAN_MOTION_DDOT":0},{"OBJECT_NAME":"QZS-1R (QZSS/PRN 196)","OBJECT_ID":"2021-096A","EPOCH":"2026-04-26T05:27:38.806272","MEAN_MOTION":1.00273172,"ECCENTRICITY":0.0751304,"INCLINATION":37.3584,"RA_OF_ASC_NODE":80.3474,"ARG_OF_PERICENTER":270.8364,"MEAN_ANOMALY":80.66,"EPHEMERIS_TYPE":0,"CLASSIFICATION_TYPE":"U","NORAD_CAT_ID":49336,"ELEMENT_SET_NO":999,"REV_AT_EPOCH":1649,"BSTAR":0,"MEAN_MOTION_DOT":-2.33e-6,"MEAN_MOTION_DDOT":0},{"OBJECT_NAME":"GSAT0223 (GALILEO 27)","OBJECT_ID":"2021-116A","EPOCH":"2026-04-24T07:45:19.739232","MEAN_MOTION":1.7047548,"ECCENTRICITY":2.341e-5,"INCLINATION":57.1776,"RA_OF_ASC_NODE":343.1299,"ARG_OF_PERICENTER":233.2925,"MEAN_ANOMALY":308.954,"EPHEMERIS_TYPE":0,"CLASSIFICATION_TYPE":"U","NORAD_CAT_ID":49809,"ELEMENT_SET_NO":999,"REV_AT_EPOCH":2726,"BSTAR":0,"MEAN_MOTION_DOT":-8.8e-7,"MEAN_MOTION_DDOT":0},{"OBJECT_NAME":"GSAT0224 (GALILEO 28)","OBJECT_ID":"2021-116B","EPOCH":"2026-04-24T17:19:56.422848","MEAN_MOTION":1.70475626,"ECCENTRICITY":6.258e-5,"INCLINATION":57.1774,"RA_OF_ASC_NODE":343.118,"ARG_OF_PERICENTER":14.3979,"MEAN_ANOMALY":165.3634,"EPHEMERIS_TYPE":0,"CLASSIFICATION_TYPE":"U","NORAD_CAT_ID":49810,"ELEMENT_SET_NO":999,"REV_AT_EPOCH":2729,"BSTAR":0,"MEAN_MOTION_DOT":-8.9e-7,"MEAN_MOTION_DDOT":0},{"OBJECT_NAME":"COSMOS 2557 (706K)","OBJECT_ID":"2022-075A","EPOCH":"2026-04-25T01:58:56.761824","MEAN_MOTION":2.1310182,"ECCENTRICITY":0.001022,"INCLINATION":64.3294,"RA_OF_ASC_NODE":316.3562,"ARG_OF_PERICENTER":281.4601,"MEAN_ANOMALY":78.4529,"EPHEMERIS_TYPE":0,"CLASSIFICATION_TYPE":"U","NORAD_CAT_ID":52984,"ELEMENT_SET_NO":999,"REV_AT_EPOCH":2958,"BSTAR":0,"MEAN_MOTION_DOT":-2.7e-7,"MEAN_MOTION_DDOT":0},{"OBJECT_NAME":"COSMOS 2559 (707K)","OBJECT_ID":"2022-130A","EPOCH":"2026-04-24T21:39:01.473696","MEAN_MOTION":2.13101428,"ECCENTRICITY":0.00113317,"INCLINATION":64.3024,"RA_OF_ASC_NODE":316.4476,"ARG_OF_PERICENTER":176.1695,"MEAN_ANOMALY":183.8669,"EPHEMERIS_TYPE":0,"CLASSIFICATION_TYPE":"U","NORAD_CAT_ID":54031,"ELEMENT_SET_NO":999,"REV_AT_EPOCH":2755,"BSTAR":0,"MEAN_MOTION_DOT":-2.7e-7,"MEAN_MOTION_DDOT":0},{"OBJECT_NAME":"COSMOS 2564 (761)","OBJECT_ID":"2022-161A","EPOCH":"2026-04-25T05:09:15.538752","MEAN_MOTION":2.1310193,"ECCENTRICITY":0.0011,"INCLINATION":64.739,"RA_OF_ASC_NODE":194.4694,"ARG_OF_PERICENTER":219.468,"MEAN_ANOMALY":140.4982,"EPHEMERIS_TYPE":0,"CLASSIFICATION_TYPE":"U","NORAD_CAT_ID":54377,"ELEMENT_SET_NO":999,"REV_AT_EPOCH":2650,"BSTAR":0,"MEAN_MOTION_DOT":-1.8e-7,"MEAN_MOTION_DDOT":0},{"OBJECT_NAME":"GPS BIII-6  (PRN 28)","OBJECT_ID":"2023-009A","EPOCH":"2026-04-24T02:49:50.651904","MEAN_MOTION":2.00575001,"ECCENTRICITY":0.00055639,"INCLINATION":55.114,"RA_OF_ASC_NODE":150.6438,"ARG_OF_PERICENTER":314.9389,"MEAN_ANOMALY":49.0235,"EPHEMERIS_TYPE":0,"CLASSIFICATION_TYPE":"U","NORAD_CAT_ID":55268,"ELEMENT_SET_NO":999,"REV_AT_EPOCH":2416,"BSTAR":0,"MEAN_MOTION_DOT":3.8e-7,"MEAN_MOTION_DDOT":0}]
